{"type": "FeatureCollection", "features": [ {"type": "Feature", "properties": {"norad_id": 33799, "name": "COSMOS 2251 DEB", "group": "cosmos-2251-debris", "lat": 1.6514793646549744, "lon": 52.492840720493085, "alt_km": 638.7071084867239, "timestamp": "2025-12-27T20:30:59.672561+00:00", "meta": {"OBJECT_NAME": "COSMOS 2251 DEB", "OBJECT_ID": "1993-036AQ", "EPOCH": "2025-12-27T06:15:17.617248", "MEAN_MOTION": 14.79857732, "ECCENTRICITY": 0.0021945, "INCLINATION": 74.0326, "RA_OF_ASC_NODE": 53.1898, "ARG_OF_PERICENTER": 118.4044, "MEAN_ANOMALY": 319.1794, "EPHEMERIS_TYPE": 0, "CLASSIFICATION_TYPE": "U", "NORAD_CAT_ID": 33799, "ELEMENT_SET_NO": 999, "REV_AT_EPOCH": 89026, "BSTAR": 0.0015284, "MEAN_MOTION_DOT": 0.00011557, "MEAN_MOTION_DDOT": 0}, "tle": {"line1": "1 33799U 93036AQ  25361.26062057  .00011557  00000+0  15284-2 0  9997", "line2": "2 33799  74.0326  53.1898 0021945 118.4044 319.1794 14.79857732890264"}}, "geometry": {"type": "Point", "coordinates": [52.492840720493085, 1.6514793646549744]}}, {"type": "Feature", "properties": {"norad_id": 33805, "name": "COSMOS 2251 DEB", "group": "cosmos-2251-debris", "lat": 26.98973651927892, "lon": -69.03730765099257, "alt_km": 690.184501847536, "timestamp": "2025-12-27T20:30:59.672571+00:00", "meta": {"OBJECT_NAME": "COSMOS 2251 DEB", "OBJECT_ID": "1993-036AW", "EPOCH": "2025-12-27T05:33:56.451168", "MEAN_MOTION": 14.5788835, "ECCENTRICITY": 0.0059865, "INCLINATION": 74.0313, "RA_OF_ASC_NODE": 283.7617, "ARG_OF_PERICENTER": 108.4924, "MEAN_ANOMALY": 252.2759, "EPHEMERIS_TYPE": 0, "CLASSIFICATION_TYPE": "U", "NORAD_CAT_ID": 33805, "ELEMENT_SET_NO": 999, "REV_AT_EPOCH": 89438, "BSTAR": 0.00027604, "MEAN_MOTION_DOT": 1.267e-05, "MEAN_MOTION_DDOT": 0}, "tle": {"line1": "1 33805U 93036AW  25361.23190337  .00001267  00000+0  27604-3 0  9992", "line2": "2 33805  74.0313 283.7617 0059865 108.4924 252.2759 14.57888350894387"}}, "geometry": {"type": "Point", "coordinates": [-69.03730765099257, 26.98973651927892]}}, {"type": "Feature", "properties": {"norad_id": 33811, "name": "COSMOS 2251 DEB", "group": "cosmos-2251-debris", "lat": -32.626908659647796, "lon": -99.40083471528453, "alt_km": 535.3616114802398, "timestamp": "2025-12-27T20:30:59.672581+00:00", "meta": {"OBJECT_NAME": "COSMOS 2251 DEB", "OBJECT_ID": "1993-036BC", "EPOCH": "2025-12-27T05:25:34.497408", "MEAN_MOTION": 15.05709407, "ECCENTRICITY": 0.0031, "INCLINATION": 73.8375, "RA_OF_ASC_NODE": 272.6034, "ARG_OF_PERICENTER": 350.9506, "MEAN_ANOMALY": 168.3106, "EPHEMERIS_TYPE": 0, "CLASSIFICATION_TYPE": "U", "NORAD_CAT_ID": 33811, "ELEMENT_SET_NO": 999, "REV_AT_EPOCH": 90236, "BSTAR": 0.0011887, "MEAN_MOTION_DOT": 0.0001738, "MEAN_MOTION_DDOT": 0}, "tle": {"line1": "1 33811U 93036BC  25361.22609372  .00017380  00000+0  11887-2 0  9990", "line2": "2 33811  73.8375 272.6034 0031000 350.9506 168.3106 15.05709407902360"}}, "geometry": {"type": "Point", "coordinates": [-99.40083471528453, -32.626908659647796]}}, {"type": "Feature", "properties": {"norad_id": 33815, "name": "COSMOS 2251 DEB", "group": "cosmos-2251-debris", "lat": 65.78341805922435, "lon": -75.06268188539903, "alt_km": 493.50919695047924, "timestamp": "2025-12-27T20:30:59.672592+00:00", "meta": {"OBJECT_NAME": "COSMOS 2251 DEB", "OBJECT_ID": "1993-036BG", "EPOCH": "2025-12-27T12:27:46.097856", "MEAN_MOTION": 15.22485853, "ECCENTRICITY": 0.0005079, "INCLINATION": 73.9505, "RA_OF_ASC_NODE": 145.4439, "ARG_OF_PERICENTER": 337.0131, "MEAN_ANOMALY": 92.7256, "EPHEMERIS_TYPE": 0, "CLASSIFICATION_TYPE": "U", "NORAD_CAT_ID": 33815, "ELEMENT_SET_NO": 999, "REV_AT_EPOCH": 88595, "BSTAR": 0.0091356, "MEAN_MOTION_DOT": 0.0021813, "MEAN_MOTION_DDOT": 0}, "tle": {"line1": "1 33815U 93036BG  25361.51928354  .00218130  00000+0  91356-2 0  9995", "line2": "2 33815  73.9505 145.4439 0005079 337.0131  92.7256 15.22485853885959"}}, "geometry": {"type": "Point", "coordinates": [-75.06268188539903, 65.78341805922435]}}, {"type": "Feature", "properties": {"norad_id": 33816, "name": "COSMOS 2251 DEB", "group": "cosmos-2251-debris", "lat": 7.543338330256896, "lon": 81.97060743041266, "alt_km": 926.2175034186894, "timestamp": "2025-12-27T20:30:59.672602+00:00", "meta": {"OBJECT_NAME": "COSMOS 2251 DEB", "OBJECT_ID": "1993-036BH", "EPOCH": "2025-12-27T11:47:28.529952", "MEAN_MOTION": 13.81799429, "ECCENTRICITY": 0.0264071, "INCLINATION": 73.8953, "RA_OF_ASC_NODE": 80.3941, "ARG_OF_PERICENTER": 90.3966, "MEAN_ANOMALY": 272.7417, "EPHEMERIS_TYPE": 0, "CLASSIFICATION_TYPE": "U", "NORAD_CAT_ID": 33816, "ELEMENT_SET_NO": 999, "REV_AT_EPOCH": 84877, "BSTAR": 0.00037257, "MEAN_MOTION_DOT": 4.98e-06, "MEAN_MOTION_DDOT": 0}, "tle": {"line1": "1 33816U 93036BH  25361.49130243  .00000498  00000+0  37257-3 0  9992", "line2": "2 33816  73.8953  80.3941 0264071  90.3966 272.7417 13.81799429848773"}}, "geometry": {"type": "Point", "coordinates": [81.97060743041266, 7.543338330256896]}}, {"type": "Feature", "properties": {"norad_id": 33818, "name": "COSMOS 2251 DEB", "group": "cosmos-2251-debris", "lat": -23.48399257106366, "lon": 127.85013291760445, "alt_km": 542.0936878034263, "timestamp": "2025-12-27T20:30:59.672613+00:00", "meta": {"OBJECT_NAME": "COSMOS 2251 DEB", "OBJECT_ID": "1993-036BK", "EPOCH": "2025-12-27T08:00:58.360320", "MEAN_MOTION": 15.1375985, "ECCENTRICITY": 0.0023351, "INCLINATION": 74.0796, "RA_OF_ASC_NODE": 136.0522, "ARG_OF_PERICENTER": 116.9034, "MEAN_ANOMALY": 261.6929, "EPHEMERIS_TYPE": 0, "CLASSIFICATION_TYPE": "U", "NORAD_CAT_ID": 33818, "ELEMENT_SET_NO": 999, "REV_AT_EPOCH": 90083, "BSTAR": 0.0029847, "MEAN_MOTION_DOT": 0.00054564, "MEAN_MOTION_DDOT": 0}, "tle": {"line1": "1 33818U 93036BK  25361.33400880  .00054564  00000+0  29847-2 0  9992", "line2": "2 33818  74.0796 136.0522 0023351 116.9034 261.6929 15.13759850900834"}}, "geometry": {"type": "Point", "coordinates": [127.85013291760445, -23.48399257106366]}}, {"type": "Feature", "properties": {"norad_id": 33819, "name": "COSMOS 2251 DEB", "group": "cosmos-2251-debris", "lat": 22.679679994690012, "lon": -170.6895684971858, "alt_km": 721.5399208473036, "timestamp": "2025-12-27T20:30:59.672623+00:00", "meta": {"OBJECT_NAME": "COSMOS 2251 DEB", "OBJECT_ID": "1993-036BL", "EPOCH": "2025-12-27T12:10:02.669376", "MEAN_MOTION": 14.32269509, "ECCENTRICITY": 0.0089614, "INCLINATION": 74.1772, "RA_OF_ASC_NODE": 183.1336, "ARG_OF_PERICENTER": 40.007, "MEAN_ANOMALY": 350.9824, "EPHEMERIS_TYPE": 0, "CLASSIFICATION_TYPE": "U", "NORAD_CAT_ID": 33819, "ELEMENT_SET_NO": 999, "REV_AT_EPOCH": 87707, "BSTAR": 0.00057019, "MEAN_MOTION_DOT": 1.584e-05, "MEAN_MOTION_DDOT": 0}, "tle": {"line1": "1 33819U 93036BL  25361.50697534  .00001584  00000+0  57019-3 0  9993", "line2": "2 33819  74.1772 183.1336 0089614  40.0070 350.9824 14.32269509877079"}}, "geometry": {"type": "Point", "coordinates": [-170.6895684971858, 22.679679994690012]}}, {"type": "Feature", "properties": {"norad_id": 33821, "name": "COSMOS 2251 DEB", "group": "cosmos-2251-debris", "lat": 67.48998543527146, "lon": -112.85266803571223, "alt_km": 451.9396101879511, "timestamp": "2025-12-27T20:30:59.672633+00:00", "meta": {"OBJECT_NAME": "COSMOS 2251 DEB", "OBJECT_ID": "1993-036BN", "EPOCH": "2025-12-27T10:36:54.357120", "MEAN_MOTION": 15.2625464, "ECCENTRICITY": 0.0048758, "INCLINATION": 74.0298, "RA_OF_ASC_NODE": 111.7336, "ARG_OF_PERICENTER": 140.1672, "MEAN_ANOMALY": 220.3125, "EPHEMERIS_TYPE": 0, "CLASSIFICATION_TYPE": "U", "NORAD_CAT_ID": 33821, "ELEMENT_SET_NO": 999, "REV_AT_EPOCH": 75225, "BSTAR": 0.0013315, "MEAN_MOTION_DOT": 0.0003585, "MEAN_MOTION_DDOT": 0}, "tle": {"line1": "1 33821U 93036BN  25361.44229580  .00035850  00000+0  13315-2 0  9994", "line2": "2 33821  74.0298 111.7336 0048758 140.1672 220.3125 15.26254640752255"}}, "geometry": {"type": "Point", "coordinates": [-112.85266803571223, 67.48998543527146]}}, {"type": "Feature", "properties": {"norad_id": 33822, "name": "COSMOS 2251 DEB", "group": "cosmos-2251-debris", "lat": -65.88106729164383, "lon": 26.63698484843975, "alt_km": 772.7048191577587, "timestamp": "2025-12-27T20:30:59.672644+00:00", "meta": {"OBJECT_NAME": "COSMOS 2251 DEB", "OBJECT_ID": "1993-036BP", "EPOCH": "2025-12-26T21:58:01.564032", "MEAN_MOTION": 14.13151684, "ECCENTRICITY": 0.015255, "INCLINATION": 74.0689, "RA_OF_ASC_NODE": 168.6556, "ARG_OF_PERICENTER": 211.5659, "MEAN_ANOMALY": 300.8936, "EPHEMERIS_TYPE": 0, "CLASSIFICATION_TYPE": "U", "NORAD_CAT_ID": 33822, "ELEMENT_SET_NO": 999, "REV_AT_EPOCH": 86254, "BSTAR": 0.0021637, "MEAN_MOTION_DOT": 4.497e-05, "MEAN_MOTION_DDOT": 0}, "tle": {"line1": "1 33822U 93036BP  25360.91529588  .00004497  00000+0  21637-2 0  9996", "line2": "2 33822  74.0689 168.6556 0152550 211.5659 300.8936 14.13151684862546"}}, "geometry": {"type": "Point", "coordinates": [26.63698484843975, -65.88106729164383]}}, {"type": "Feature", "properties": {"norad_id": 33823, "name": "COSMOS 2251 DEB", "group": "cosmos-2251-debris", "lat": 24.795561447926076, "lon": 130.55281490038885, "alt_km": 1012.3081269219865, "timestamp": "2025-12-27T20:30:59.672653+00:00", "meta": {"OBJECT_NAME": "COSMOS 2251 DEB", "OBJECT_ID": "1993-036BQ", "EPOCH": "2025-12-27T10:25:23.995200", "MEAN_MOTION": 13.98991528, "ECCENTRICITY": 0.02095, "INCLINATION": 73.8102, "RA_OF_ASC_NODE": 123.5767, "ARG_OF_PERICENTER": 246.4003, "MEAN_ANOMALY": 180.7964, "EPHEMERIS_TYPE": 0, "CLASSIFICATION_TYPE": "U", "NORAD_CAT_ID": 33823, "ELEMENT_SET_NO": 999, "REV_AT_EPOCH": 85815, "BSTAR": 0.0010536, "MEAN_MOTION_DOT": 1.811e-05, "MEAN_MOTION_DDOT": 0}, "tle": {"line1": "1 33823U 93036BQ  25361.43430550  .00001811  00000+0  10536-2 0  9998", "line2": "2 33823  73.8102 123.5767 0209500 246.4003 180.7964 13.98991528858155"}}, "geometry": {"type": "Point", "coordinates": [130.55281490038885, 24.795561447926076]}}]}